ACS3                    
1 59588U 24077B   24264.55784477  .00014229  00000+0  16330-1 0  9991
2 59588  97.4261 310.5993 0045781 211.6485 148.1912 13.69104708 20443
